INTELSAT 37E (IS-37E)   
1 42950U 17059A   23250.81702127 -.00000152  00000+0  00000+0 0  9999
2 42950   0.0168 179.2469 0002976   5.9587  77.5440  1.00271858 21904
AZERSPACE 2 (IS-38)     
1 43632U 18074A   23250.99563234  .00000125  00000+0  00000+0 0  9997
2 43632   0.0158 133.8662 0001520  53.3103 203.1536  1.00272514 18287
HORIZONS-3E             
1 43633U 18074B   23250.84771806 -.00000043  00000+0  00000+0 0  9998
2 43633   0.0181 120.1030 0001973 168.5550 172.1759  1.00270759 18178
AT&T T-16               
1 44333U 19034A   23250.90464351 -.00000127  00000+0  00000+0 0  9997
2 44333   0.0240 135.8227 0000555 169.1461 266.5481  1.00273014 15462
INTELSAT 39 (IS-39)     
1 44476U 19049B   23250.57870358  .00000022  00000+0  00000+0 0  9995
2 44476   0.0171 151.7619 0000343 193.7320 271.1696  1.00271249 14970
GALAXY 30 (G-30)        
1 46114U 20056C   23250.68487118  .00000025  00000+0  00000+0 0  9999
2 46114   0.0181 146.3279 0002584  38.9826 282.7286  1.00271290 11138
GALAXY 33 (G-33)        
1 54026U 22128A   23250.68321774  .00000068  00000+0  00000+0 0  9994
2 54026   0.0226 124.2142 0001765  49.3328 285.8939  1.00270525  3596
GALAXY 34 (G-34)        
1 54027U 22128B   23250.68408796  .00000047  00000+0  00000+0 0  9992
2 54027   0.0136 128.2945 0001470  42.8173 292.6749  1.00274449  3753
GALAXY 31 (G-31)        
1 54243U 22153A   23250.68548032  .00000002  00000+0  00000+0 0  9999
2 54243   0.0170 181.6250 0002439  56.6304 234.0128  1.00271444  2985
GALAXY 32 (G-32)        
1 54244U 22153B   23250.54833270 -.00000185  00000+0  00000+0 0  9999
2 54244   0.0175 117.9860 0000101 274.1676  60.6043  1.00270207  2977
GALAXY 35 (G-35)        
1 54741U 22170A   23250.54789758 -.00000174  00000+0  00000+0 0  9999
2 54741   0.0182 150.4363 0001635  56.5261 243.5250  1.00272957  2721
GALAXY 36 (G-36)        
1 54742U 22170B   23251.07896616 -.00000197  00000+0  00000+0 0  9996
2 54742   0.0158 154.1838 0002601 333.0799 159.0468  1.00272163  2750
GALAXY 37 (G-37)        
1 57493U 23112A   23250.75195156  .00000118  00000+0  00000+0 0  9996
2 57493   0.0394 318.8908 0003326 282.7320 227.6918  1.00273228   371
